STARLINK-4691           
1 53588U 22104A   22266.91667824 -.00081285  00000+0 -14363-2 0  9993
2 53588  53.2157 156.3673 0000930  94.0473 136.7382 15.49940408  4237
STARLINK-4673           
1 53589U 22104B   22266.91667824 -.00011081  00000+0 -18770-3 0  9998
2 53589  53.2157 156.3553 0000587  91.9126 145.0126 15.49865460  4237
STARLINK-4689           
1 53590U 22104C   22266.91667824 -.00081135  00000+0 -14347-2 0  9992
2 53590  53.2153 156.3633 0000998 105.9749 126.1443 15.49918999  4235
STARLINK-4674           
1 53591U 22104D   22266.91667824 -.00010532  00000+0 -17767-3 0  9996
2 53591  53.2154 156.3611 0001186  95.7266 137.5814 15.49913774  4237
STARLINK-4672           
1 53592U 22104E   22266.91667824 -.00009399  00000+0 -15784-3 0  9993
2 53592  53.2158 156.3608 0001166  96.9425 137.4730 15.49885631  4232
STARLINK-4671           
1 53593U 22104F   22266.91667824 -.00103357  00000+0 -18328-2 0  9999
2 53593  53.2152 156.3551 0001184  97.4927 138.3889 15.49952701  4235
STARLINK-4681           
1 53594U 22104G   22266.91667824 -.00100234  00000+0 -17765-2 0  9995
2 53594  53.2156 156.3502 0001168  79.8536 159.8639 15.49952329  4235
STARLINK-4684           
1 53595U 22104H   22266.91667824 -.00010190  00000+0 -17164-3 0  9991
2 53595  53.2153 156.3504 0001261 100.3991 138.0507 15.49914555  4652
STARLINK-4668           
1 53596U 22104J   22266.91667824 -.00010179  00000+0 -17172-3 0  9998
2 53596  53.2150 156.3422 0001717 105.3701 136.6645 15.49865666  4238
STARLINK-4682           
1 53597U 22104K   22266.91667824 -.00010301  00000+0 -17362-3 0  9997
2 53597  53.2151 156.3448 0001358 100.8245 139.9269 15.49909224  4239
STARLINK-4676           
1 53598U 22104L   22266.91667824 -.00048092  00000+0 -84246-3 0  9991
2 53598  53.2161 156.3415 0000879  90.1509 154.6434 15.49956868  4230
STARLINK-4665           
1 53599U 22104M   22266.91667824  .00081747  00000+0  35647-3 0  9995
2 53599  53.2159 153.8962 0000681  28.4119 336.5059 15.84068028  1309
STARLINK-4677           
1 53600U 22104N   22266.91667824 -.00112268  00000+0 -19922-2 0  9990
2 53600  53.2151 156.3323 0001324  96.9382 150.4000 15.49974468  4655
STARLINK-4675           
1 53601U 22104P   22266.91667824 -.00110123  00000+0 -19540-2 0  9995
2 53601  53.2151 156.3398 0000967 103.8418 139.6670 15.49967497  4238
STARLINK-4648           
1 53602U 22104Q   22266.91667824 -.01095822  00000+0 -96052-2 0  9998
2 53602  53.2170 155.4327 0001339 126.8707 205.0571 15.70925232  1300
STARLINK-4692           
1 53603U 22104R   22266.91667824 -.01082033  00000+0 -94886-2 0  9992
2 53603  53.2171 155.4341 0001272 124.5294 206.6788 15.70880615  1302
STARLINK-4690           
1 53604U 22104S   22266.91667824 -.01031337  00000+0 -89716-2 0  9990
2 53604  53.2172 155.4306 0001500 139.2240 194.1603 15.70941819  4240
STARLINK-4693           
1 53605U 22104T   22266.91667824 -.00060524  00000+0 -10648-2 0  9998
2 53605  53.2150 156.3342 0001232  99.0601 147.0303 15.49934202  4230
STARLINK-4590           
1 53606U 22104U   22266.91667824  .00026888  00000+0  19531-3 0  9993
2 53606  53.2146 155.4194 0001158 113.2732 227.8121 15.73208340  4242
STARLINK-4591           
1 53607U 22104V   22266.91667824 -.01109250  00000+0 -97207-2 0  9997
2 53607  53.2170 155.4313 0001297 130.7128 201.9138 15.70964788  1307
STARLINK-4647           
1 53608U 22104W   22266.91667824 -.00072905  00000+0 -51759-3 0  9996
2 53608  53.2148 155.4193 0001213 118.6999 220.5702 15.73287657  1308
STARLINK-4660           
1 53609U 22104X   22266.91667824 -.01059545  00000+0 -92229-2 0  9999
2 53609  53.2170 155.4282 0001570 143.5852 190.5024 15.70996209  4240
STARLINK-4610           
1 53610U 22104Y   22266.91667824 -.00081246  00000+0 -57871-3 0  9998
2 53610  53.2150 155.4176 0001177 121.3036 219.2283 15.73254647  4245
STARLINK-4650           
1 53611U 22104Z   22266.91667824  .00032968  00000+0  23819-3 0  9999
2 53611  53.2147 155.4194 0000917 128.4658 210.2414 15.73219780  1301
STARLINK-4658           
1 53612U 22104AA  22266.91667824 -.00008774  00000+0 -58093-4 0  9993
2 53612  53.2149 155.4141 0001709 133.0258 209.2505 15.73223007  1300
STARLINK-4655           
1 53613U 22104AB  22266.91667824 -.00100517  00000+0 -71839-3 0  9994
2 53613  53.2148 155.4179 0001046 110.7927 229.1511 15.73264108  1305
STARLINK-4605           
1 53616U 22104AE  22266.91667824 -.00007703  00000+0 -50463-4 0  9991
2 53616  53.2164 154.7065 0001309  90.5441 235.6345 15.73224299  1304
STARLINK-4601           
1 53617U 22104AF  22266.91667824 -.00082267  00000+0 -58568-3 0  9993
2 53617  53.2152 155.4147 0001158 120.0400 222.8170 15.73271695  1303
STARLINK-4604           
1 53618U 22104AG  22266.91667824 -.00000662  00000+0 -29846-6 0  9993
2 53618  53.2153 155.4109 0001190 112.6553 232.5890 15.73235182  4249
STARLINK-4609           
1 53619U 22104AH  22266.91667824 -.00074159  00000+0 -52695-3 0  9991
2 53619  53.2147 155.4109 0001262 111.8274 231.6214 15.73274149  4240
STARLINK-4615           
1 53620U 22104AJ  22266.91667824 -.00109935  00000+0 -78651-3 0  9994
2 53620  53.2148 155.4054 0001000 119.2790 227.1842 15.73278558  1306
STARLINK-4608           
1 53621U 22104AK  22266.91667824 -.00083890  00000+0 -59736-3 0  9999
2 53621  53.2150 155.4103 0001206 142.4234 202.2635 15.73274767  4242
STARLINK-4568           
1 53622U 22104AL  22266.91667824 -.00029214  00000+0 -20412-3 0  9999
2 53622  53.2144 155.4015 0001211 107.5041 240.1118 15.73238201  4242
STARLINK-4573           
1 53623U 22104AM  22266.91667824 -.00006252  00000+0 -40109-4 0  9993
2 53623  53.2149 155.4070 0001501 125.1104 220.7373 15.73226091  4248
STARLINK-4596           
1 53624U 22104AN  22266.91667824  .00028818  00000+0  20896-3 0  9994
2 53624  53.2151 155.4038 0001131 121.1558 227.1182 15.73209359  4241
STARLINK-4603           
1 53625U 22104AP  22266.91667824 -.00081480  00000+0 -57960-3 0  9993
2 53625  53.2149 155.4056 0001227 125.9776 221.0169 15.73286841  4248
STARLINK-4554           
1 53626U 22104AQ  22266.91667824  .00007381  00000+0  56865-4 0  9994
2 53626  53.2151 155.4009 0001223 113.6100 236.4378 15.73240165  1306
STARLINK-4595           
1 53627U 22104AR  22266.91667824  .00023070  00000+0  16821-3 0  9995
2 53627  53.2149 155.4020 0001452 118.0058 230.8148 15.73217858  4244
STARLINK-4600           
1 53628U 22104AS  22266.91667824  .00027826  00000+0  20207-3 0  9992
2 53628  53.2151 155.3986 0001180 123.3532 227.9003 15.73194022  4246
STARLINK-4602           
1 53629U 22104AT  22266.91667824 -.00007783  00000+0 -51034-4 0  9998
2 53629  53.2150 155.4011 0001452 108.9312 240.4823 15.73221211  1308
STARLINK-4598           
1 53630U 22104AU  22266.91667824 -.00087089  00000+0 -61962-3 0  9997
2 53630  53.2150 155.3966 0001311 119.9750 231.7783 15.73308925  4242
STARLINK-4599           
1 53631U 22104AV  22266.91667824 -.00006545  00000+0 -42238-4 0  9992
2 53631  53.2148 155.3978 0001370 120.8210 229.8262 15.73205120  1307
STARLINK-4606           
1 53632U 22104AW  22266.91667824  .00028705  00000+0  20806-3 0  9999
2 53632  53.2149 155.3945 0001454 111.8370 241.1644 15.73220271  1308
STARLINK-4593           
1 53633U 22104AX  22266.91667824 -.00011834  00000+0 -80030-4 0  9993
2 53633  53.2149 155.3948 0001285 126.4555 226.0022 15.73196454  4244
STARLINK-4592           
1 53634U 22104AY  22266.91667824 -.00063089  00000+0 -44695-3 0  9999
2 53634  53.2147 155.3905 0001141 117.2883 236.8433 15.73279301  4247
STARLINK-4587           
1 53635U 22104AZ  22266.91667824 -.00003833  00000+0 -22862-4 0  9994
2 53635  53.2143 155.3893 0001333 117.8253 235.8159 15.73243479  1305
STARLINK-4586           
1 53636U 22104BA  22266.91667824 -.00070635  00000+0 -50179-3 0  9990
2 53636  53.2149 155.3893 0000922 117.9124 237.4761 15.73261257  1304
STARLINK-4396           
1 53637U 22104BB  22266.91667824 -.00086849  00000+0 -61852-3 0  9995
2 53637  53.2151 155.3915 0001209 117.1752 237.5847 15.73285494  1306
STARLINK-4594           
1 53638U 22104BC  22266.91667824 -.00066656  00000+0 -47253-3 0  9999
2 53638  53.2147 155.3867 0000879 136.6621 219.8624 15.73286905  4241
STARLINK-4422           
1 53639U 22104BD  22266.91667824 -.00017113  00000+0 -11760-3 0  9998
2 53639  53.2153 155.3887 0001317 118.6550 237.3205 15.73231189  1308
STARLINK-4597           
1 53640U 22104BE  22266.91667824 -.00100993  00000+0 -72198-3 0  9991
2 53640  53.2145 155.3842 0001151 137.8483 219.3978 15.73259801  4240
STARLINK-4588           
1 53641U 22104BF  22266.91667824 -.00081875  00000+0 -58216-3 0  9994
2 53641  53.2150 155.3852 0001386 120.6009 237.1140 15.73298285  4240
STARLINK-4622           
1 53648U 22105A   22266.91667824 -.00060898  00000+0 -10263-2 0  9993
2 53648  97.6542 145.9227 0002216 134.8164 214.5903 15.51819509  4012
STARLINK-4386           
1 53649U 22105B   22266.91667824 -.00648762  00000+0 -11773-1 0  9992
2 53649  97.6557 145.9125 0002152 141.0251 112.4434 15.51840327  3995
STARLINK-4380           
1 53650U 22105C   22266.91667824 -.00718607  00000+0 -13000-1 0  9995
2 53650  97.6556 145.9112 0002226 140.2541 113.4308 15.52171136  1307
STARLINK-4388           
1 53651U 22105D   22266.91667824 -.00749336  00000+0 -13498-1 0  9990
2 53651  97.6550 145.9097 0002427 145.0329 109.5455 15.52002601  3990
STARLINK-4374           
1 53652U 22105E   22266.91667824 -.00045939  00000+0 -77254-3 0  9991
2 53652  97.6534 145.9043 0002282 130.3892 124.9323 15.51811799  1308
STARLINK-4390           
1 53653U 22105F   22266.91667824 -.00046056  00000+0 -77445-3 0  9995
2 53653  97.6533 145.9028 0002464 128.0127 127.9006 15.51813980  1303
STARLINK-4420           
1 53654U 22105G   22266.91667824  .00004791  00000+0  81961-4 0  9993
2 53654  97.6534 145.9032 0002508 133.9890 123.4491 15.51805648  1302
STARLINK-4470           
